CTC2_L_00308016-03
1 58547U 22533MC  26037.47793981  .00000000  00000+0  00000-0 0  9999
2 58547  85.0000 180.0000 0000000   0.0000   0.0000 13.72670174    12
CTC2_L_00308016-04
1 58548U 24665ZJ  26037.47793981  .00000000  00000+0  00000-0 0  9998
2 58548  85.0000 180.0000 0000000   0.0000  90.0000 13.72670174    12
CTC2_L_00308017-01
1 58549U 23529SL  26037.47793981  .00000000  00000+0  00000-0 0  9997
2 58549  85.0000 192.0000 0000000   0.0000 192.0000 13.72670174    19
CTC2_L_00308017-02
1 58550U 23237WS  26037.47793981  .00000000  00000+0  00000-0 0  9995
2 58550  85.0000 192.0000 0000000   0.0000 282.0000 13.72670174    11
CTC2_L_00308017-03
1 58551U 25512BC  26037.47793981  .00000000  00000+0  00000-0 0  9994
2 58551  85.0000 192.0000 0000000   0.0000  12.0000 13.72670174    13
CTC2_L_00308017-04
1 58552U 22618ID  26037.47793981  .00000000  00000+0  00000-0 0  9999
2 58552  85.0000 192.0000 0000000   0.0000 102.0000 13.72670174    14
CTC2_L_00308018-01
1 58553U 22363LC  26037.47793981  .00000000  00000+0  00000-0 0  9997
2 58553  85.0000 204.0000 0000000   0.0000 204.0000 13.72670174    12
CTC2_L_00308018-02
1 58554U 23952EA  26037.47793981  .00000000  00000+0  00000-0 0  9993
2 58554  85.0000 204.0000 0000000   0.0000 294.0000 13.72670174    12
CTC2_L_00308018-03
1 58555U 22343HJ  26037.47793981  .00000000  00000+0  00000-0 0  9997
2 58555  85.0000 204.0000 0000000   0.0000  24.0000 13.72670174    14
CTC2_L_00308018-04
1 58556U 25599HI  26037.47793981  .00000000  00000+0  00000-0 0  9994
2 58556  85.0000 204.0000 0000000   0.0000 114.0000 13.72670174    15
CTC2_L_00308019-01
1 58557U 24242LU  26037.47793981  .00000000  00000+0  00000-0 0  9999
2 58557  85.0000 216.0000 0000000   0.0000 216.0000 13.72670174    12
CTC2_L_00308019-02
1 58558U 22403OK  26037.47793981  .00000000  00000+0  00000-0 0  9997
2 58558  85.0000 216.0000 0000000   0.0000 306.0000 13.72670174    13
CTC2_L_00308019-03
1 58559U 26412MG  26037.47793981  .00000000  00000+0  00000-0 0  9992
2 58559  85.0000 216.0000 0000000   0.0000  36.0000 13.72670174    14
CTC2_L_00308019-04
1 58560U 25942RP  26037.47793981  .00000000  00000+0  00000-0 0  9991
2 58560  85.0000 216.0000 0000000   0.0000 126.0000 13.72670174    16
CTC2_L_00308020-01
1 58561U 26772JC  26037.47793981  .00000000  00000+0  00000-0 0  9994
2 58561  85.0000 228.0000 0000000   0.0000 228.0000 13.72670174    13
CTC2_L_00308020-02
1 58562U 22918XY  26037.47793981  .00000000  00000+0  00000-0 0  9993
2 58562  85.0000 228.0000 0000000   0.0000 318.0000 13.72670174    14
CTC2_L_00308020-03
1 58563U 25327VF  26037.47793981  .00000000  00000+0  00000-0 0  9991
2 58563  85.0000 228.0000 0000000   0.0000  48.0000 13.72670174    15
CTC2_L_00308020-04
1 58564U 24324SL  26037.47793981  .00000000  00000+0  00000-0 0  9998
2 58564  85.0000 228.0000 0000000   0.0000 138.0000 13.72670174    16
CTC2_L_00308021-01
1 58565U 24092PT  26037.47793981  .00000000  00000+0  00000-0 0  9991
2 58565  85.0000 240.0000 0000000   0.0000 240.0000 13.72670174    15
CTC2_L_00308021-02
1 58566U 26023PC  26037.47793981  .00000000  00000+0  00000-0 0  9998
2 58566  85.0000 240.0000 0000000   0.0000 330.0000 13.72670174    16
CTC2_L_00308021-03
1 58567U 24665YR  26037.47793981  .00000000  00000+0  00000-0 0  9999
2 58567  85.0000 240.0000 0000000   0.0000  60.0000 13.72670174    17
CTC2_L_00308021-04
1 58568U 25119RK  26037.47793981  .00000000  00000+0  00000-0 0  9995
2 58568  85.0000 240.0000 0000000   0.0000 150.0000 13.72670174    18
CTC2_L_00308022-01
1 58569U 26285KB  26037.47793981  .00000000  00000+0  00000-0 0  9991
2 58569  85.0000 252.0000 0000000   0.0000 252.0000 13.72670174    15
CTC2_L_00308022-02
1 58570U 23223LL  26037.47793981  .00000000  00000+0  00000-0 0  9992
2 58570  85.0000 252.0000 0000000   0.0000 342.0000 13.72670174    17
CTC2_L_00308022-03
1 58571U 22303ZB  26037.47793981  .00000000  00000+0  00000-0 0  9991
2 58571  85.0000 252.0000 0000000   0.0000  72.0000 13.72670174    18
CTC2_L_00308022-04
1 58572U 22931IA  26037.47793981  .00000000  00000+0  00000-0 0  9999
2 58572  85.0000 252.0000 0000000   0.0000 162.0000 13.72670174    19
CTC2_L_00308023-01
1 58573U 23336PJ  26037.47793981  .00000000  00000+0  00000-0 0  9990
2 58573  85.0000 264.0000 0000000   0.0000 264.0000 13.72670174    16
CTC2_L_00308023-02
1 58574U 23008ZY  26037.47793981  .00000000  00000+0  00000-0 0  9997
2 58574  85.0000 264.0000 0000000   0.0000 354.0000 13.72670174    17
CTC2_L_00308023-03
1 58575U 23795FM  26037.47793981  .00000000  00000+0  00000-0 0  9991
2 58575  85.0000 264.0000 0000000   0.0000  84.0000 13.72670174    18
CTC2_L_00308023-04
1 58576U 24254WH  26037.47793981  .00000000  00000+0  00000-0 0  9993
2 58576  85.0000 264.0000 0000000   0.0000 174.0000 13.72670174    19
CTC2_L_00308024-01
1 58577U 22538CN  26037.47793981  .00000000  00000+0  00000-0 0  9997
2 58577  85.0000 276.0000 0000000   0.0000 276.0000 13.72670174    16
CTC2_L_00308024-02
1 58578U 26953ZE  26037.47793981  .00000000  00000+0  00000-0 0  9993
2 58578  85.0000 276.0000 0000000   0.0000   6.0000 13.72670174    18
CTC2_L_00308024-03
1 58579U 24158JP  26037.47793981  .00000000  00000+0  00000-0 0  9999
2 58579  85.0000 276.0000 0000000   0.0000  96.0000 13.72670174    18
CTC2_L_00308024-04
1 58580U 26719UT  26037.47793981  .00000000  00000+0  00000-0 0  9996
2 58580  85.0000 276.0000 0000000   0.0000 186.0000 13.72670174    10
CTC2_L_00308025-01
1 58581U 24888RU  26037.47793981  .00000000  00000+0  00000-0 0  9992
2 58581  85.0000 288.0000 0000000   0.0000 288.0000 13.72670174    17
CTC2_L_00308025-02
1 58582U 26753KY  26037.47793981  .00000000  00000+0  00000-0 0  9996
2 58582  85.0000 288.0000 0000000   0.0000  18.0000 13.72670174    19
CTC2_L_00308025-03
1 58583U 22316AY  26037.47793981  .00000000  00000+0  00000-0 0  9998
2 58583  85.0000 288.0000 0000000   0.0000 108.0000 13.72670174    10
CTC2_L_00308025-04
1 58584U 24897AB  26037.47793981  .00000000  00000+0  00000-0 0  9995
2 58584  85.0000 288.0000 0000000   0.0000 198.0000 13.72670174    10
CTC2_L_00308026-01
1 58585U 26034KN  26037.47793981  .00000000  00000+0  00000-0 0  9991
2 58585  85.0000 300.0000 0000000   0.0000 300.0000 13.72670174    11
CTC2_L_00308026-02
1 58586U 22499ZX  26037.47793981  .00000000  00000+0  00000-0 0  9993
2 58586  85.0000 300.0000 0000000   0.0000  30.0000 13.72670174    12
CTC2_L_00308026-03
1 58587U 22197ST  26037.47793981  .00000000  00000+0  00000-0 0  9999
2 58587  85.0000 300.0000 0000000   0.0000 120.0000 13.72670174    13
CTC2_L_00308026-04
1 58588U 24635AJ  26037.47793981  .00000000  00000+0  00000-0 0  9999
2 58588  85.0000 300.0000 0000000   0.0000 210.0000 13.72670174    14
CTC2_L_00308027-01
1 58589U 25812SJ  26037.47793981  .00000000  00000+0  00000-0 0  9998
2 58589  85.0000 312.0000 0000000   0.0000 312.0000 13.72670174    11
CTC2_L_00308027-02
1 58590U 22704AR  26037.47793981  .00000000  00000+0  00000-0 0  9997
2 58590  85.0000 312.0000 0000000   0.0000  42.0000 13.72670174    13
CTC2_L_00308027-03
1 58591U 22065BS  26037.47793981  .00000000  00000+0  00000-0 0  9998
2 58591  85.0000 312.0000 0000000   0.0000 132.0000 13.72670174    14
CTC2_L_00308027-04
1 58592U 22673CL  26037.47793981  .00000000  00000+0  00000-0 0  9994
2 58592  85.0000 312.0000 0000000   0.0000 222.0000 13.72670174    15
CTC2_L_00308028-01
1 58593U 25627DA  26037.47793981  .00000000  00000+0  00000-0 0  9997
2 58593  85.0000 324.0000 0000000   0.0000 324.0000 13.72670174    12
CTC2_L_00308028-02
1 58594U 26784LW  26037.47793981  .00000000  00000+0  00000-0 0  9993
2 58594  85.0000 324.0000 0000000   0.0000  54.0000 13.72670174    13
CTC2_L_00308028-03
1 58595U 24758HG  26037.47793981  .00000000  00000+0  00000-0 0  9993
2 58595  85.0000 324.0000 0000000   0.0000 144.0000 13.72670174    14
CTC2_L_00308028-04
1 58596U 23398WP  26037.47793981  .00000000  00000+0  00000-0 0  9993
2 58596  85.0000 324.0000 0000000   0.0000 234.0000 13.72670174    15
CTC2_L_00308029-01
1 58597U 23495CE  26037.47793981  .00000000  00000+0  00000-0 0  9992
2 58597  85.0000 336.0000 0000000   0.0000 336.0000 13.72670174    12
CTC2_L_00308029-02
1 58598U 23202TD  26037.47793981  .00000000  00000+0  00000-0 0  9999
2 58598  85.0000 336.0000 0000000   0.0000  66.0000 13.72670174    13
CTC2_L_00308029-03
1 58599U 24071ZL  26037.47793981  .00000000  00000+0  00000-0 0  9995
2 58599  85.0000 336.0000 0000000   0.0000 156.0000 13.72670174    14
CTC2_L_00308029-04
1 58600U 23649XL  26037.47793981  .00000000  00000+0  00000-0 0  9998
2 58600  85.0000 336.0000 0000000   0.0000 246.0000 13.72670174    17
CTC2_L_00308030-01
1 58601U 25937QF  26037.47793981  .00000000  00000+0  00000-0 0  9991
2 58601  85.0000 348.0000 0000000   0.0000 348.0000 13.72670174    14
CTC2_L_00308030-02
1 58602U 25389DS  26037.47793981  .00000000  00000+0  00000-0 0  9993
2 58602  85.0000 348.0000 0000000   0.0000  78.0000 13.72670174    15
CTC2_L_00308030-03
1 58603U 24719B   26037.47793981  .00000000  00000+0  00000-0 0  9990
2 58603  85.0000 348.0000 0000000   0.0000 168.0000 13.72670174    16
CTC2_L_00308030-04
1 58604U 26962GS  26037.47793981  .00000000  00000+0  00000-0 0  9993
2 58604  85.0000 348.0000 0000000   0.0000 258.0000 13.72670174    17
